Total gap duration: 11:35:34.905716
STARLINK-3517
1 51735U 22016X   24101.29044614  .00018101  00000+0  11549-2 0  9992
2 51735  53.2228 214.3578 0002125 106.5839 253.5387 15.08762134119244
Total gap duration: 11:35:34.905716
STARLINK-31501
1 59359U 24060M   24101.58335648 -.01055467  00000+0 -64402-2 0  9990
2 59359  43.0008 283.5582 0001330 268.3135  13.0204 15.78828114  2812
Total gap duration: 11:35:34.905716
STARLINK-4659
1 54841U 22177X   24101.30981402  .00000650  00000+0  63202-4 0  9993
2 54841  43.0059 327.8931 0001332 267.5109  92.5581 15.02540342 70921
Total gap duration: 11:26:29.643979
STARLINK-1758
1 46380U 20062BH  24101.41020883  .00000693  00000+0  65472-4 0  9990
2 46380  53.0518 251.3129 0001944  85.4028 274.7182 15.06388139199524
Total gap duration: 11:30:48.928711
STARLINK-4385
1 53198U 22084K   24101.12165209  .00002039  00000+0  16331-3 0  9996
2 53198  97.6583 162.9349 0000199 122.8308 237.2935 15.01261409 94882
Total gap duration: 11:35:11.234229
STARLINK-30808
1 58250U 23171W   24101.40959757  .00003276  00000+0  25739-3 0  9994
2 58250  43.0009 122.1288 0001318 265.1946  94.8746 15.02543566 24683
Total gap duration: 11:31:23.354717
STARLINK-5790
1 56036U 23042BC  24101.40811793  .00000003  00000+0  15326-4 0  9995
2 56036  43.0023 237.1057 0001173 269.6176  90.4532 15.02530612 58368
Total gap duration: 11:27:59.851133
STARLINK-30603
1 58080U 23160F   24101.52113310  .00000050  00000+0  18772-4 0  9990
2 58080  43.0029 274.0420 0001701 275.6615  84.4034 15.02545674 27866
Total gap duration: 11:22:19.578345
STARLINK-1616
1 46148U 20057AH  24101.40835184  .00005732  00000+0  40316-3 0  9991
2 46148  53.0541 191.3235 0001431  90.1743 269.9410 15.06418201201765
Total gap duration: 11:30:28.378874
STARLINK-30077
1 57460U 23107D   24101.55138612  .00000272  00000+0  35235-4 0  9996
2 57460  43.0022 172.5927 0001211 258.4931 101.5775 15.02544569 40084
Total gap duration: 11:35:34.905716
STARLINK-5940
1 56012U 23042AC  24100.73346703 -.00000568  00000+0 -26990-4 0  9995
2 56012  43.0018 241.5138 0001194 266.9815  93.0891 15.02527835 57918
Total gap duration: 11:34:12.399424
STARLINK-31549
1 59360U 24060N   24101.58335648 -.01075437  00000+0 -65837-2 0  9994
2 59360  43.0008 283.5463 0001501 261.9238  24.0783 15.78799278  2817
Total gap duration: 11:35:34.905716
STARLINK-3112
1 49421U 21104P   24101.43114821  .00000093  00000+0  23967-4 0  9992
2 49421  53.2173 123.5345 0001477  95.6373 264.4788 15.08839127134290
Total gap duration: 11:27:46.034992
STARLINK-31265
1 59074U 24041A   24101.56069479  .00006249  00000+0  24862-3 0  9995
2 59074  42.9974 287.1891 0000975 294.0410  66.0339 15.25896315  7581
Total gap duration: 11:34:51.262219
STARLINK-3992
1 52627U 22052AF  24101.21405809  .00000327  00000+0  38622-4 0  9996
2 52627  53.2171 164.7018 0001458  90.7691 269.3468 15.08831526105924
Total gap duration: 11:35:34.905716
STARLINK-31009
1 58530U 23191Y   24100.86904496  .00003084  00000+0  24320-3 0  9998
2 58530  43.0010 302.9115 0001418 270.4750  89.5929 15.02544326 20344
Total gap duration: 11:25:29.767057
STARLINK-1467
1 45733U 20038D   24101.36883816  .00015452  00000+0  51154-3 0  9991
2 45733  53.0687  76.9415 0002557 290.1277  69.9448 15.31516445212833
Total gap duration: 11:32:20.656037
STARLINK-30381
1 57785U 23134Q   24100.86298067  .00002028  00000+0  16513-3 0  9998
2 57785  43.0055  34.2875 0001089 261.4624  98.6095 15.02542618 34359
Total gap duration: 11:32:38.382513
STARLINK-4429
1 53495U 22099AG  24101.23118232  .00001989  00000+0  15935-3 0  9990
2 53495  97.6570 223.0427 0004741 229.4163 130.6649 15.01270731 91449
Total gap duration: 11:32:32.394696
STARLINK-30994
1 58483U 23186L   24100.57421868  .00027524  00000+0  10579-2 0  9999
2 58483  42.9995 241.5101 0001454 267.6838  92.3846 15.25916787 20876
Total gap duration: 11:32:23.844874
STARLINK-5224
1 55397U 23014G   24100.70706436  .00000469  00000+0  47081-4 0  9991
2 55397  70.0012   6.9937 0002792 269.5975  90.4864 14.98329463 67843
Total gap duration: 11:33:38.891137
STARLINK-30285
1 57840U 23141A   24101.25001157  .02517256  00000+0  89625-1 0  9992
2 57840  53.1111 288.4185 0001405  83.0803 263.3309 15.24820418 33407
Total gap duration: 11:31:48.293104
STARLINK-2062
1 47670U 21012BC  24101.56179899  .00000192  00000+0  31760-4 0  9994
2 47670  53.0507 305.6320 0001557  89.7669 270.3498 15.06395280174529
Total gap duration: 11:34:46.371197
STARLINK-30916
1 58391U 23178T   24101.58335648  .00119057  00000+0  42494-2 0  9994
2 58391  53.0953   5.3298 0001074 115.7815 335.2267 15.27963956 22982
Total gap duration: 11:24:16.189823
STARLINK-1894
1 46744U 20074F   24101.33790262  .00012231  00000+0  83798-3 0  9994
2 46744  53.0549 216.9114 0001470  78.6556 281.4598 15.06425769191414
Total gap duration: 11:28:29.826466
STARLINK-5006
1 55422U 23014AH  24100.56564268  .00000091  00000+0  15413-4 0  9994
2 55422  70.0020  47.0545 0002718 270.6902  89.3945 14.98329988 65907
Total gap duration: 11:24:41.627828
STARLINK-2369
1 47909U 21021BB  24100.88911828  .00009764  00000+0  67308-3 0  9999
2 47909  53.0536 168.6540 0001354  86.0374 274.0770 15.06422768170392
Total gap duration: 11:27:43.097291
STARLINK-30238
1 57296U 23096G   24101.26136530 -.00000301  00000+0 -71884-5 0  9991
2 57296  43.0026  58.3998 0001209 277.1954  82.8750 15.02546253 41452
Total gap duration: 11:34:40.123273
STARLINK-5104
1 55646U 23021U   24101.21772666  .00000156  00000+0  20856-4 0  9995
2 55646  69.9988 145.6929 0003338 271.2814  88.7963 14.98331221 63863
Total gap duration: 11:29:46.824402
STARLINK-31380
1 58979U 24031Q   24101.56948151  .00067440  00000+0  24278-2 0  9990
2 58979  53.1564 298.9904 0000814  60.7340 299.3741 15.27987114  9658
Total gap duration: 11:35:06.986092
STARLINK-4765
1 53937U 22119BD  24101.23566842  .00000428  00000+0  44970-4 0  9997
2 53937  53.2164 189.5365 0002022  90.0179 270.1045 15.08840297 86242
Total gap duration: 11:34:41.870156
STARLINK-5325
1 55292U 23010Z   24101.40362521 -.00002101  00000+0 -16827-3 0  9992
2 55292  70.0001 345.0458 0002992 270.1258  89.9558 14.98338234 68361
Total gap duration: 11:33:30.989872
STARLINK-31716
1 59377U 24062D   24101.50001157 -.01150446  00000+0 -72862-2 0  9991
2 59377  53.1660 276.0589 0000692  98.0608 178.8720 15.78466719  2536
Total gap duration: 11:35:10.305930
STARLINK-31530
1 59322U 24057C   24101.50001157 -.00157855  00000+0 -10946-2 0  9990
2 59322  43.0007 221.2580 0001348 257.4643 300.2737 15.73949457  3643
Total gap duration: 11:32:52.186502
STARLINK-3586
1 51795U 22017AD  24100.68415165  .00000300  00000+0  36922-4 0  9990
2 51795  53.2156 247.2703 0001525  91.2047 268.9120 15.08842801118399
Total gap duration: 11:28:46.016524
STARLINK-31419
1 59368U 24060W   24101.58335648 -.01133500  00000+0 -69874-2 0  9993
2 59368  43.0005 283.5074 0001774 277.9225  23.4177 15.78776107  2811
Total gap duration: 11:31:36.918675
STARLINK-4047
1 53243U 22086B   24101.37271477  .00000707  00000+0  62488-4 0  9996
2 53243  53.2169  98.6780 0001421  93.5342 266.5813 15.08841016 95321
Total gap duration: 11:33:29.214424
STARLINK-2385
1 47804U 21018T   24100.81540227  .00001946  00000+0  14951-3 0  9993
2 47804  53.0538 128.9866 0001223  80.8981 279.2146 15.06390363171535
Total gap duration: 11:34:04.503551
STARLINK-2347
1 47795U 21018J   24100.81171381  .00001509  00000+0  12021-3 0  9994
2 47795  53.0545 129.0031 0001336  84.8826 275.2315 15.06391338171598
Total gap duration: 11:31:52.927116
STARLINK-3700
1 51956U 22025A   24100.92952020  .00000947  00000+0  79179-4 0  9999
2 51956  53.0474 282.3351 0000897  81.2051 278.9040 15.08030196115679
Total gap duration: 11:30:16.459727
STARLINK-5910
1 56000U 23042Q   24101.40564467  .00003210  00000+0  25273-3 0  9993
2 56000  43.0022 250.1087 0001523 273.2487  86.8181 15.02517781 58216
Total gap duration: 11:27:35.040045
STARLINK-2078
1 47675U 21012BH  24101.30745806  .00001540  00000+0  12221-3 0  9996
2 47675  53.0556 306.7746 0001411  93.9874 266.1277 15.06406374174486
Total gap duration: 11:28:20.609057
STARLINK-31162
1 58791U 24012E   24100.84841041  .00004895  00000+0  19681-3 0  9999
2 58791  42.9954 145.3839 0001531  10.0933 349.9948 15.25913373 14431
Total gap duration: 11:26:43.306348
STARLINK-3747
1 52306U 22041AX  24100.93989391  .00001195  00000+0  93145-4 0  9994
2 52306  53.2194 345.9310 0001366  89.2257 270.8892 15.08839597110379
Total gap duration: 11:34:25.915183
STARLINK-30928
1 58452U 23183R   24101.10453504  .00006363  00000+0  48552-3 0  9995
2 58452  43.0010 238.8259 0001829 278.9192  81.1443 15.02546114 21653
Total gap duration: 11:29:14.303595
STARLINK-5641
1 55359U 23013AE  24101.47459840  .00002076  00000+0  16876-3 0  9990
2 55359  43.0043 133.8990 0001553 275.9605  84.1060 15.02529052 67119
Total gap duration: 11:34:23.758848
STARLINK-2255
1 48597U 21041AW  24101.09644174  .00001181  00000+0  98132-4 0  9991
2 48597  53.0562  37.7188 0001546  96.6983 263.4182 15.06406196161032
Total gap duration: 11:26:09.591461
STARLINK-4307
1 53063U 22077W   24101.38701268  .00000669  00000+0  56631-4 0  9993
2 53063  97.6568 283.2211 0001256 101.1873 258.9492 15.01265096 96733
Total gap duration: 11:33:30.372696
STARLINK-31327
1 59160U 24044J   24101.40456502  .00012136  00000+0  47275-3 0  9999
2 59160  43.0000  85.2639 0000980 246.1309 113.9440 15.25929556  6866
Total gap duration: 11:32:09.749555
STARLINK-31455
1 59309U 24056P   24101.25001157  .00011423  00000+0  81592-4 0  9991
2 59309  43.0012 261.1213 0001918 258.5710 191.9228 15.73798771  3607
Total gap duration: 11:32:13.430326
STARLINK-1392
1 45677U 20035W   24100.88034318 -.00002121  00000+0 -12350-3 0  9992
2 45677  53.0562 323.6929 0001467  95.0854 265.0302 15.06408696213408
Total gap duration: 11:35:34.905716
STARLINK-30851
1 58215U 23170K   24101.49312567  .00000868  00000+0  79306-4 0  9999
2 58215  43.0043  29.6251 0001293 270.5904  89.4790 15.02535160 25152
